{
  "type": "FeatureCollection",
  "features": [
    {
      "type": "Feature",
      "properties": {
        "norad_id": 36551,
        "name": "COSMOS 2251 DEB",
        "group": "cosmos-2251-debris",
        "lat": 72.62998554861704,
        "lon": 102.98842911179769,
        "alt_km": 557.613367600813,
        "timestamp": "2025-12-02T15:49:07.591796+00:00",
        "meta_object_name": "COSMOS 2251 DEB",
        "meta_object_id": "1993-036BDM",
        "meta_epoch": "2025-12-01T04:16:57.552096",
        "meta_mean_motion": 15.01965558,
        "meta_eccentricity": 0.00505004,
        "meta_inclination": 73.8879,
        "meta_ra_of_asc_node": 38.501,
        "meta_arg_of_pericenter": 349.5182,
        "meta_mean_anomaly": 10.4947,
        "meta_ephemeris_type": 0,
        "meta_classification_type": "U",
        "meta_norad_cat_id": 36551,
        "meta_element_set_no": 999,
        "meta_rev_at_epoch": 66758,
        "meta_bstar": 0.0014137691,
        "meta_mean_motion_dot": 0.00019039,
        "meta_mean_motion_ddot": 0,
        "tle_line1": "1 36551U 93036BDM 25335.17844389  .00019039  00000+0  14138-2 0  9993",
        "tle_line2": "2 36551  73.8879  38.5010 0050500 349.5182  10.4947 15.01965558667585"
      },
      "geometry": {
        "type": "Point",
        "coordinates": [
          102.98842911179769,
          72.62998554861704
        ]
      }
    },
    {
      "type": "Feature",
      "properties": {
        "norad_id": 36557,
        "name": "COSMOS 2251 DEB",
        "group": "cosmos-2251-debris",
        "lat": -48.908191084591365,
        "lon": -14.655914546589383,
        "alt_km": 637.5925309907179,
        "timestamp": "2025-12-02T15:49:07.591807+00:00",
        "meta_object_name": "COSMOS 2251 DEB",
        "meta_object_id": "1993-036BDT",
        "meta_epoch": "2025-11-29T20:08:28.959648",
        "meta_mean_motion": 14.77361907,
        "meta_eccentricity": 0.00205231,
        "meta_inclination": 73.9794,
        "meta_ra_of_asc_node": 151.6562,
        "meta_arg_of_pericenter": 302.0455,
        "meta_mean_anomaly": 57.8725,
        "meta_ephemeris_type": 0,
        "meta_classification_type": "U",
        "meta_norad_cat_id": 36557,
        "meta_element_set_no": 999,
        "meta_rev_at_epoch": 33706,
        "meta_bstar": 0.0024129009,
        "meta_mean_motion_dot": 0.00017224,
        "meta_mean_motion_ddot": 0,
        "tle_line1": "1 36557U 93036BDT 25333.83922407  .00017224  00000+0  24129-2 0  9993",
        "tle_line2": "2 36557  73.9794 151.6562 0020523 302.0455  57.8725 14.77361907337062"
      },
      "geometry": {
        "type": "Point",
        "coordinates": [
          -14.655914546589383,
          -48.908191084591365
        ]
      }
    },
    {
      "type": "Feature",
      "properties": {
        "norad_id": 36558,
        "name": "COSMOS 2251 DEB",
        "group": "cosmos-2251-debris",
        "lat": -74.00011230151165,
        "lon": 79.84281751623416,
        "alt_km": 706.2740421369817,
        "timestamp": "2025-12-02T15:49:07.591816+00:00",
        "meta_object_name": "COSMOS 2251 DEB",
        "meta_object_id": "1993-036BDU",
        "meta_epoch": "2025-11-30T14:44:20.411232",
        "meta_mean_motion": 14.55224096,
        "meta_eccentricity": 0.0013208,
        "meta_inclination": 74.0432,
        "meta_ra_of_asc_node": 177.4971,
        "meta_arg_of_pericenter": 265.9101,
        "meta_mean_anomaly": 94.0552,
        "meta_ephemeris_type": 0,
        "meta_classification_type": "U",
        "meta_norad_cat_id": 36558,
        "meta_element_set_no": 999,
        "meta_rev_at_epoch": 85092,
        "meta_bstar": 0.00073526,
        "meta_mean_motion_dot": 3.158e-05,
        "meta_mean_motion_ddot": 0,
        "tle_line1": "1 36558U 93036BDU 25334.61412513  .00003158  00000+0  73526-3 0  9990",
        "tle_line2": "2 36558  74.0432 177.4971 0013208 265.9101  94.0552 14.55224096850920"
      },
      "geometry": {
        "type": "Point",
        "coordinates": [
          79.84281751623416,
          -74.00011230151165
        ]
      }
    },
    {
      "type": "Feature",
      "properties": {
        "norad_id": 36559,
        "name": "COSMOS 2251 DEB",
        "group": "cosmos-2251-debris",
        "lat": 49.92136553819219,
        "lon": -172.72418964702277,
        "alt_km": 819.6361346382919,
        "timestamp": "2025-12-02T15:49:07.591827+00:00",
        "meta_object_name": "COSMOS 2251 DEB",
        "meta_object_id": "1993-036BDV",
        "meta_epoch": "2025-12-02T03:11:21.358176",
        "meta_mean_motion": 13.95051105,
        "meta_eccentricity": 0.0260429,
        "meta_inclination": 74.1296,
        "meta_ra_of_asc_node": 27.9346,
        "meta_arg_of_pericenter": 63.9976,
        "meta_mean_anomaly": 298.7727,
        "meta_ephemeris_type": 0,
        "meta_classification_type": "U",
        "meta_norad_cat_id": 36559,
        "meta_element_set_no": 999,
        "meta_rev_at_epoch": 80946,
        "meta_bstar": 0.0030993208,
        "meta_mean_motion_dot": 5.524e-05,
        "meta_mean_motion_ddot": 0,
        "tle_line1": "1 36559U 93036BDV 25336.13288609  .00005524  00000+0  30993-2 0  9996",
        "tle_line2": "2 36559  74.1296  27.9346 0260429  63.9976 298.7727 13.95051105809462"
      },
      "geometry": {
        "type": "Point",
        "coordinates": [
          -172.72418964702277,
          49.92136553819219
        ]
      }
    },
    {
      "type": "Feature",
      "properties": {
        "norad_id": 36614,
        "name": "COSMOS 2251 DEB",
        "group": "cosmos-2251-debris",
        "lat": 65.18465122387856,
        "lon": -24.44586057640744,
        "alt_km": 696.9500766431411,
        "timestamp": "2025-12-02T15:49:07.591837+00:00",
        "meta_object_name": "COSMOS 2251 DEB",
        "meta_object_id": "1993-036BEC",
        "meta_epoch": "2025-11-29T08:23:05.068608",
        "meta_mean_motion": 14.60020605,
        "meta_eccentricity": 0.00167217,
        "meta_inclination": 74.0224,
        "meta_ra_of_asc_node": 200.1619,
        "meta_arg_of_pericenter": 270.7966,
        "meta_mean_anomaly": 89.1284,
        "meta_ephemeris_type": 0,
        "meta_classification_type": "U",
        "meta_norad_cat_id": 36614,
        "meta_element_set_no": 999,
        "meta_rev_at_epoch": 65417,
        "meta_bstar": 0.0010676228,
        "meta_mean_motion_dot": 5.109e-05,
        "meta_mean_motion_ddot": 0,
        "tle_line1": "1 36614U 93036BEC 25333.34936422  .00005109  00000+0  10676-2 0  9996",
        "tle_line2": "2 36614  74.0224 200.1619 0016721 270.7966  89.1284 14.60020605654173"
      },
      "geometry": {
        "type": "Point",
        "coordinates": [
          -24.44586057640744,
          65.18465122387856
        ]
      }
    },
    {
      "type": "Feature",
      "properties": {
        "norad_id": 36622,
        "name": "COSMOS 2251 DEB",
        "group": "cosmos-2251-debris",
        "lat": -42.44152823492723,
        "lon": 150.04019677504814,
        "alt_km": 601.0856337890364,
        "timestamp": "2025-12-02T15:49:07.591847+00:00",
        "meta_object_name": "COSMOS 2251 DEB",
        "meta_object_id": "1993-036BEL",
        "meta_epoch": "2025-12-02T06:15:30.191040",
        "meta_mean_motion": 14.76050008,
        "meta_eccentricity": 0.00686517,
        "meta_inclination": 74.0125,
        "meta_ra_of_asc_node": 166.02,
        "meta_arg_of_pericenter": 303.5072,
        "meta_mean_anomaly": 55.9554,
        "meta_ephemeris_type": 0,
        "meta_classification_type": "U",
        "meta_norad_cat_id": 36622,
        "meta_element_set_no": 999,
        "meta_rev_at_epoch": 66595,
        "meta_bstar": 0.00070931219,
        "meta_mean_motion_dot": 5.049e-05,
        "meta_mean_motion_ddot": 0,
        "tle_line1": "1 36622U 93036BEL 25336.26076610  .00005049  00000+0  70931-3 0  9997",
        "tle_line2": "2 36622  74.0125 166.0200 0068651 303.5072  55.9554 14.76050008665956"
      },
      "geometry": {
        "type": "Point",
        "coordinates": [
          150.04019677504814,
          -42.44152823492723
        ]
      }
    },
    {
      "type": "Feature",
      "properties": {
        "norad_id": 36632,
        "name": "COSMOS 2251 DEB",
        "group": "cosmos-2251-debris",
        "lat": -50.81918653123557,
        "lon": 151.74253800202303,
        "alt_km": 777.1235059514584,
        "timestamp": "2025-12-02T15:49:07.591857+00:00",
        "meta_object_name": "COSMOS 2251 DEB",
        "meta_object_id": "1993-036BEW",
        "meta_epoch": "2025-12-01T05:27:55.216224",
        "meta_mean_motion": 14.43069985,
        "meta_eccentricity": 0.003148,
        "meta_inclination": 74.0013,
        "meta_ra_of_asc_node": 313.794,
        "meta_arg_of_pericenter": 64.7094,
        "meta_mean_anomaly": 295.7318,
        "meta_ephemeris_type": 0,
        "meta_classification_type": "U",
        "meta_norad_cat_id": 36632,
        "meta_element_set_no": 999,
        "meta_rev_at_epoch": 65049,
        "meta_bstar": 0.00093196,
        "meta_mean_motion_dot": 3.119e-05,
        "meta_mean_motion_ddot": 0,
        "tle_line1": "1 36632U 93036BEW 25335.22772241  .00003119  00000+0  93196-3 0  9990",
        "tle_line2": "2 36632  74.0013 313.7940 0031480  64.7094 295.7318 14.43069985650498"
      },
      "geometry": {
        "type": "Point",
        "coordinates": [
          151.74253800202303,
          -50.81918653123557
        ]
      }
    }
  ]
}